IRIDIUM 921             
1 24873U 97034E   24351.11443386  .00147377  00000+0  11994-2 0  9996
2 24873  86.3690 196.4105 0001744  51.9576 308.1851 15.70221283503659
IRIDIUM 26              
1 24903U 97043A   24351.40083658  .00000784  00000+0  25875-3 0  9998
2 24903  86.3981 187.3246 0001945  81.6298 278.5120 14.36850955430962
IRIDIUM 22              
1 24907U 97043E   24351.32086716  .00000680  00000+0  22885-3 0  9994
2 24907  86.3985 190.7366 0001972  88.8780 271.2642 14.35696425430526
DUMMY MASS 1            
1 24925U 97048A   24350.88820764  .00000803  00000+0  87169-4 0  9992
2 24925  86.3364 220.0004 0009073  79.5156 280.7091 14.86678424477896
DUMMY MASS 2            
1 24926U 97048B   24351.08921662  .00000800  00000+0  87406-4 0  9996
2 24926  86.3362 221.4811 0009915  87.4430 272.7930 14.86433353477943
IRIDIUM 29              
1 24944U 97051A   24348.75818411  .00000660  00000+0  21981-3 0  9996
2 24944  86.3975 221.5933 0002122  89.1092 271.0348 14.36159009426874
IRIDIUM 33              
1 24946U 97051C   24351.40162395  .00000468  00000+0  15866-3 0  9998
2 24946  86.3891 219.7338 0006734 328.1326  31.9462 14.34687119426540
IRIDIUM 28              
1 24948U 97051E   24351.35870844  .00000668  00000+0  21852-3 0  9993
2 24948  86.3981 218.1242 0001817  73.0392 287.1005 14.37109303427653
